SITRO-AIS 10 (BURDAEV)  
1 57199U 23091AK  26141.57503225  .00013462  00000+0  36796-3 0  9998
2 57199  97.5086 211.5026 0007777 158.2163 201.9414 15.37480700160675
SITRO-AIS 9 (SHCHUKIN)  
1 57201U 23091AM  26141.59327667  .00013117  00000+0  36389-3 0  9993
2 57201  97.5084 211.2714 0007973 158.5847 201.5732 15.37023624160664
SITRO-AIS 12 (SMIRENNIY)
1 57204U 23091AQ  26141.58887336  .00013067  00000+0  35922-3 0  9995
2 57204  97.5096 211.7174 0007734 153.2960 206.8684 15.37309926160686
SITRO-AIS 11 (SHEFFER)  
1 57208U 23091AU  26141.54434582  .00013892  00000+0  37687-3 0  9992
2 57208  97.5095 211.9022 0007649 153.3016 206.8624 15.37706302160695
SITRO-AIS 25            
1 59066U 24039R   26141.64211581  .00002705  00000+0  21122-3 0  9990
2 59066  95.3915 216.8534 0147064  61.4121 300.1811 14.93315114120768
SITRO-AIS 26            
1 59067U 24039S   26141.63990133  .00002666  00000+0  20919-3 0  9996
2 59067  95.3916 216.7550 0147407  61.9507 299.6536 14.93116660120751
SITRO-AIS 27            
1 59068U 24039T   26141.61754596  .00003438  00000+0  26672-3 0  9996
2 59068  95.3917 216.9991 0146406  60.7451 300.8321 14.93527920120771
SITRO-AIS 28            
1 59071U 24039U   26141.59559339  .00002984  00000+0  23179-3 0  9999
2 59071  95.3915 217.0300 0146190  60.6367 300.9367 14.93562181120773
GRBBETA                 
1 60237U 24128C   26141.47165109  .00003110  00000+0  22017-3 0  9991
2 60237  61.9903 309.9817 0044336 129.1852 231.3192 15.06391270102247
OOV-CUBE (TUBSAT-30)    
1 60240U 24128F   26141.03934605  .00001622  00000+0  13410-3 0  9995
2 60240  61.9943 320.2264 0048056 127.8545 232.6909 15.02616790102034
ROBUSTA-3A (MEDITERRAN*)
1 60243U 24128J   26141.47388385  .00006224  00000+0  37286-3 0  9994
2 60243  61.9870 302.6815 0045190 122.8595 237.6862 15.11203799102380
LASARSAT                
1 62391U 24247Q   26140.82849373  .00022182  00000+0  47396-3 0  9993
2 62391  44.9760  55.7382 0005860 176.3157 183.7776 15.44503182 79088
